1 02847U 67053E   24346.68598761  .00000524  00000-0  37505-3 0  9995
2 02847  69.9654 323.8436 0003393  43.5803 316.5573 14.02621055936309
1  2847U 67053E   24346.68598761  .00000524  00000-0  37505-3 0  9995
2  2847  69.9654 323.8436 0003393  43.5803 316.5573 14.02621055936714
1 02847U 67053E   24347.32780975  .00000477  00000-0  34458-3 0  9998
2 02847  69.9654 322.4539 0003444  42.3631 317.7743 14.02621476936399
1 02847U 67053E   24347.68437742  .00000467  00000-0  33794-3 0  9999
2 02847  69.9653 321.6818 0003454  41.6787 318.4585 14.02621814936448
1 02847U 67053E   24348.18357183  .00000452  00000-0  32790-3 0  9994
2 02847  69.9653 320.6009 0003461  40.8161 319.3206 14.02622322936517
1  2847U 67053E   24348.18357183  .00000452  00000-0  32790-3 0  9994
2  2847  69.9653 320.6009 0003461  40.8161 319.3206 14.02622322936922
1 02847U 67053E   24349.32458740  .00000458  00000-0  33201-3 0  9996
2 02847  69.9652 318.1304 0003537  38.5902 321.5459 14.02623624936675
1  2847U 67053E   24349.32458740  .00000458  00000-0  33201-3 0  9996
2  2847  69.9652 318.1304 0003537  38.5902 321.5459 14.02623624937081
1 02847U 67053E   24350.32297497  .00000466  00000-0  33738-3 0  9992
2 02847  69.9652 315.9687 0003604  36.6118 323.5236 14.02624864936815
1 02847U 67053E   24350.60822849  .00000434  00000-0  31640-3 0  9993
2 02847  69.9652 315.3510 0003620  36.0574 324.0779 14.02625017936855
1  2847U 67053E   24350.60822849  .00000434  00000-0  31640-3 0  9993
2  2847  69.9652 315.3510 0003620  36.0574 324.0779 14.02625017937261
1 02847U 67053E   24351.60661536  .00000421  00000-0  30794-3 0  9993
2 02847  69.9653 313.1893 0003689  34.1128 326.0217 14.02626026936990
1 02847U 67053E   24351.89186866  .00000409  00000-0  30033-3 0  9994
2 02847  69.9653 312.5717 0003701  33.6442 326.4901 14.02626261937037
1  2847U 67053E   24352.10580859  .00000408  00000-0  29933-3 0  9995
2  2847  69.9653 312.1085 0003715  33.2148 326.9193 14.02626454937475
1 02847U 67053E   24352.31974847  .00000395  00000-0  29132-3 0  9998
2 02847  69.9653 311.6453 0003733  32.7944 327.3396 14.02626606937093
1 02847U 67053E   24352.60500157  .00000411  00000-0  30166-3 0  9997
2 02847  69.9653 311.0276 0003755  32.2276 327.9062 14.02626987937130
1  2847U 67053E   24353.17550780  .00000433  00000-0  31605-3 0  9990
2  2847  69.9654 309.7924 0003793  31.2060 328.9273 14.02627615937625
1 02847U 67053E   24353.31813437  .00000417  00000-0  30522-3 0  9996
2 02847  69.9654 309.4835 0003808  30.9435 329.1897 14.02627639937230
1 02847U 67053E   24354.17389325  .00000395  00000-0  29123-3 0  9995
2 02847  69.9655 307.6306 0003865  29.3985 330.7341 14.02628252937356
1 02847U 67053E   24354.31651971  .00000401  00000-0  29473-3 0  9996
2 02847  69.9655 307.3218 0003878  29.1631 330.9694 14.02628392937375
1  2847U 67053E   24354.31651971  .00000401  00000-0  29473-3 0  9996
2  2847  69.9655 307.3218 0003878  29.1631 330.9694 14.02628392937780
1 02847U 67053E   24354.88702526  .00000404  00000-0  29688-3 0  9992
2 02847  69.9655 306.0866 0003901  28.1084 332.0235 14.02628902937458
1 02847U 67053E   24355.60015702  .00000417  00000-0  30550-3 0  9990
2 02847  69.9656 304.5425 0003963  27.1205 333.0111 14.02629529937556
1  2847U 67053E   24355.60015702  .00000417  00000-0  30550-3 0  9990
2  2847  69.9656 304.5425 0003963  27.1205 333.0111 14.02629529937961
1 02847U 67053E   24355.81409635  .00000466  00000-0  33727-3 0  9998
2 02847  69.9656 304.0793 0003972  26.7889 333.3425 14.02630010937583
1 02847U 67053E   24356.24197509  .00000464  00000-0  33562-3 0  9995
2 02847  69.9656 303.1529 0004000  26.0868 334.0442 14.02630352937646
1 02847U 67053E   24356.81247978  .00000495  00000-0  35572-3 0  9991
2 02847  69.9657 301.9177 0004039  25.2607 334.8699 14.02631071937726
1  2847U 67053E   24356.81247978  .00000495  00000-0  35572-3 0  9991
2  2847  69.9657 301.9177 0004039  25.2607 334.8699 14.02631071938132
1 02847U 67053E   24357.24035803  .00000522  00000-0  37339-3 0  9995
2 02847  69.9656 300.9912 0004063  24.4809 335.6492 14.02631640937781
1 02847U 67053E   24357.88217510  .00000550  00000-0  39148-3 0  9993
2 02847  69.9656 299.6016 0004095  23.5131 336.6164 14.02632528937876
1  2847U 67053E   24358.16742703  .00000549  00000-0  39081-3 0  9996
2  2847  69.9656 298.9840 0004113  23.0315 337.0977 14.02632824938320
1 02847U 67053E   24358.23873993  .00000569  00000-0  40354-3 0  9997
2 02847  69.9656 298.8296 0004119  22.9141 337.2150 14.02633033937928
1 02847U 67053E   24359.23712092  .00000574  00000-0  40710-3 0  9992
2 02847  69.9656 296.6679 0004180  21.2920 338.8362 14.02634311938062
1  2847U 67053E   24359.23712092  .00000574  00000-0  40710-3 0  9992
2  2847  69.9656 296.6679 0004180  21.2920 338.8362 14.02634311938477
1 02847U 67053E   24359.87893671  .00000534  00000-0  38093-3 0  9992
2 02847  69.9656 295.2783 0004219  20.3179 339.8097 14.02634983938153
1 02847U 67053E   24360.52075202  .00000592  00000-0  41885-3 0  9995
2 02847  69.9657 293.8888 0004288  19.4421 340.6850 14.02636215938246
1  2847U 67053E   24360.52075202  .00000592  00000-0  41885-3 0  9995
2  2847  69.9657 293.8888 0004288  19.4421 340.6850 14.02636215938651
1 02847U 67053E   24361.23387989  .00000544  00000-0  38775-3 0  9993
2 02847  69.9657 292.3448 0004333  18.5121 341.6145 14.02636923938345
1  2847U 67053E   24361.80438168  .00000553  00000-0  39321-3 0  9990
2  2847  69.9656 291.1096 0004371  17.6501 342.4759 14.02637804938837
1 02847U 67053E   24361.87569443  .00000513  00000-0  36748-3 0  9994
2 02847  69.9656 290.9552 0004377  17.5535 342.5724 14.02637684938438
1 02847U 67053E   24362.51750871  .00000523  00000-0  37393-3 0  9991
2 02847  69.9656 289.5656 0004434  16.5585 343.5668 14.02638585938524
1  2847U 67053E   24362.94538468  .00000504  00000-0  36174-3 0  9999
2  2847  69.9656 288.6393 0004460  15.9456 344.1793 14.02639056938992
1 02847U 67053E   24363.51588589  .00000535  00000-0  38205-3 0  9993
2 02847  69.9656 287.4041 0004512  15.2642 344.8602 14.02639899938662
1 02847U 67053E   24364.51426217  .00000566  00000-0  40201-3 0  9996
2 02847  69.9656 285.2426 0004584  13.9496 346.1739 14.02641253938805
1  2847U 67053E   24365.22738741  .00000704  00000-0  49112-3 0  9997
2  2847  69.9656 283.6986 0004628  12.9605 347.1622 14.02642825939313
1 02847U 67053E   24365.51263723  .00000757  00000-0  52535-3 0  9993
2 02847  69.9656 283.0811 0004649  12.6227 347.4997 14.02643498938947
1 02847U 67053E   24365.72657433  .00000774  00000-0  53638-3 0  9995
2 02847  69.9655 282.6179 0004644  12.0197 348.1022 14.02643932938976
1 02847U 67053E   24366.22576156  .00000730  00000-0  50774-3 0  9993
2 02847  69.9655 281.5370 0004677  11.3318 348.7896 14.02644252939040
1 02847U 67053E   25001.50938347  .00000832  00000-0  57407-3 0  9998
2 02847  69.9655 278.7578 0004756   9.5313 350.5885 14.02646717939227
1  2847U 67053E   25001.50938347  .00000832  00000-0  57407-3 0  9998
2  2847  69.9655 278.7578 0004756   9.5313 350.5885 14.02646717939632
1 02847U 67053E   25002.15118878  .00001815  00000-0  12104-2 0  9995
2 02847  69.9654 277.3682 0004780   8.6721 351.4469 14.02654467939316
1  2847U 67053E   25003.14956337  .00000753  00000-0  52306-3 0  9994
2  2847  69.9653 275.2066 0004877   7.4661 352.6519 14.02649302939866
1 02847U 67053E   25003.43481178  .00000724  00000-0  50409-3 0  9992
2 02847  69.9653 274.5890 0004898   7.0756 353.0421 14.02649675939496
1 02847U 67053E   25004.43318030  .00000616  00000-0  43380-3 0  9999
2 02847  69.9652 272.4274 0004962   5.8161 354.3004 14.02650995939630
1  2847U 67053E   25004.43318030  .00000616  00000-0  43380-3 0  9999
2  2847  69.9652 272.4274 0004962   5.8161 354.3004 14.02650995940047
1 02847U 67053E   25004.71842824  .00000516  00000-0  36918-3 0  9991
2 02847  69.9651 271.8098 0004980   5.4521 354.6641 14.02651004939678
1 02847U 67053E   25005.14629982  .00000607  00000-0  42800-3 0  9995
2 02847  69.9651 270.8834 0005018   5.0932 355.0227 14.02652331939736
1 02847U 67053E   25005.71679517  .00000509  00000-0  36498-3 0  9994
2 02847  69.9650 269.6482 0005059   4.3600 355.7552 14.02652856939818
1  2847U 67053E   25005.71679517  .00000509  00000-0  36498-3 0  9994
2  2847  69.9650 269.6482 0005059   4.3600 355.7552 14.02652856940225
1 02847U 67053E   25006.14466648  .00000497  00000-0  35707-3 0  9999
2 02847  69.9649 268.7217 0005092   3.8585 356.2563 14.02653523939871
1 02847U 67053E   25006.92909689  .00000427  00000-0  31144-3 0  9996
2 02847  69.9648 267.0233 0005146   2.8883 357.2255 14.02654386939989
1  2847U 67053E   25007.14303245  .00000411  00000-0  30160-3 0  9997
2  2847  69.9648 266.5601 0005165   2.6538 357.4598 14.02654598940426
1 02847U 67053E   25007.64221530  .00000368  00000-0  27316-3 0  9998
2 02847  69.9647 265.4793 0005199   2.0745 358.0384 14.02655003940080
1  2847U 67053E   25008.42664541  .00000345  00000-0  25874-3 0  9990
2  2847  69.9646 263.7808 0005258   1.3568 358.7554 14.02655698940602
1 02847U 67053E   25008.64058086  .00000313  00000-0  23760-3 0  9992
2 02847  69.9646 263.3176 0005270   1.0771 359.0349 14.02655709940220
1 02847U 67053E   25008.85451617  .00000307  00000-0  23390-3 0  9994
2 02847  69.9645 262.8544 0005283   0.7635 359.3481 14.02655887940251
1 02847U 67053E   25009.13976335  .00000307  00000-0  23383-3 0  9997
2 02847  69.9645 262.2368 0005304   0.3634 359.7478 14.02656105940296
1 02847U 67053E   25009.85288098  .00000336  00000-0  25266-3 0  9992
2 02847  69.9645 260.6929 0005340 359.6356   0.4748 14.02656838940396
1  2847U 67053E   25010.13812799  .00000340  00000-0  25548-3 0  9994
2  2847  69.9644 260.0753 0005357 359.3293   0.7808 14.02657057940843
1 02847U 67053E   25010.42337503  .00000330  00000-0  24873-3 0  9990
2 02847  69.9643 259.4576 0005380 359.0247   1.0850 14.02657181940477
1 02847U 67053E   25010.92255688  .00000343  00000-0  25755-3 0  9992
2 02847  69.9643 258.3768 0005401 358.3015   1.8074 14.02657661940544
